CCSDS_OMM_VERS = 2.0
CREATION_DATE  = 
ORIGINATOR     = 

OBJECT_NAME    = ATLAS CENTAUR R/B
OBJECT_ID      = 1972-065B
CENTER_NAME    = EARTH
REF_FRAME      = TEME
TIME_SYSTEM    = UTC
MEAN_ELEMENT_THEORY = SGP/SGP4

EPOCH          = 2025-12-11T17:07:35.893632
MEAN_MOTION    = 14.77404821
ECCENTRICITY   = .0034049
INCLINATION    = 35.0010
RA_OF_ASC_NODE = 101.2077
ARG_OF_PERICENTER = 349.0024
MEAN_ANOMALY   = 10.9930

EPHEMERIS_TYPE = 0
CLASSIFICATION_TYPE = U
NORAD_CAT_ID   = 6155
ELEMENT_SET_NO = 999
REV_AT_EPOCH   = 82824
BSTAR          = .325785E-3
MEAN_MOTION_DOT = .2355E-4
MEAN_MOTION_DDOT = 0

CCSDS_OMM_VERS = 2.0
CREATION_DATE  = 
ORIGINATOR     = 

OBJECT_NAME    = SL-8 R/B
OBJECT_ID      = 1975-112B
CENTER_NAME    = EARTH
REF_FRAME      = TEME
TIME_SYSTEM    = UTC
MEAN_ELEMENT_THEORY = SGP/SGP4

EPOCH          = 2025-12-11T23:53:58.975008
MEAN_MOTION    = 14.38144450
ECCENTRICITY   = .0016596
INCLINATION    = 74.0592
RA_OF_ASC_NODE = 180.2267
ARG_OF_PERICENTER = 291.6176
MEAN_ANOMALY   = 68.3210

EPHEMERIS_TYPE = 0
CLASSIFICATION_TYPE = U
NORAD_CAT_ID   = 8459
ELEMENT_SET_NO = 999
REV_AT_EPOCH   = 61926
BSTAR          = .15649E-3
MEAN_MOTION_DOT = .449E-5
MEAN_MOTION_DDOT = 0

CCSDS_OMM_VERS = 2.0
CREATION_DATE  = 
ORIGINATOR     = 

OBJECT_NAME    = SL-3 R/B
OBJECT_ID      = 1977-057B
CENTER_NAME    = EARTH
REF_FRAME      = TEME
TIME_SYSTEM    = UTC
MEAN_ELEMENT_THEORY = SGP/SGP4

EPOCH          = 2025-12-12T02:34:49.506816
MEAN_MOTION    = 15.42922184
ECCENTRICITY   = .0006495
INCLINATION    = 97.5686
RA_OF_ASC_NODE = 149.4107
ARG_OF_PERICENTER = 235.4828
MEAN_ANOMALY   = 124.5807

EPHEMERIS_TYPE = 0
CLASSIFICATION_TYPE = U
NORAD_CAT_ID   = 10114
ELEMENT_SET_NO = 999
REV_AT_EPOCH   = 65481
BSTAR          = .39372E-3
MEAN_MOTION_DOT = .17244E-3
MEAN_MOTION_DDOT = 0

CCSDS_OMM_VERS = 2.0
CREATION_DATE  = 
ORIGINATOR     = 

OBJECT_NAME    = SEASAT 1
OBJECT_ID      = 1978-064A
CENTER_NAME    = EARTH
REF_FRAME      = TEME
TIME_SYSTEM    = UTC
MEAN_ELEMENT_THEORY = SGP/SGP4

EPOCH          = 2025-12-11T18:47:30.248736
MEAN_MOTION    = 14.46060370
ECCENTRICITY   = .00016537
INCLINATION    = 108.0115
RA_OF_ASC_NODE = 301.0267
ARG_OF_PERICENTER = 250.1733
MEAN_ANOMALY   = 109.9234

EPHEMERIS_TYPE = 0
CLASSIFICATION_TYPE = U
NORAD_CAT_ID   = 10967
ELEMENT_SET_NO = 999
REV_AT_EPOCH   = 49380
BSTAR          = .24718912E-3
MEAN_MOTION_DOT = .746E-5
MEAN_MOTION_DDOT = 0

CCSDS_OMM_VERS = 2.0
CREATION_DATE  = 
ORIGINATOR     = 

OBJECT_NAME    = SL-14 R/B
OBJECT_ID      = 1979-011B
CENTER_NAME    = EARTH
REF_FRAME      = TEME
TIME_SYSTEM    = UTC
MEAN_ELEMENT_THEORY = SGP/SGP4

EPOCH          = 2025-12-12T01:12:17.483040
MEAN_MOTION    = 14.91768261
ECCENTRICITY   = .0015971
INCLINATION    = 82.5235
RA_OF_ASC_NODE = 179.6983
ARG_OF_PERICENTER = 355.8000
MEAN_ANOMALY   = 4.3083

EPHEMERIS_TYPE = 0
CLASSIFICATION_TYPE = U
NORAD_CAT_ID   = 11267
ELEMENT_SET_NO = 999
REV_AT_EPOCH   = 51571
BSTAR          = .88036E-4
MEAN_MOTION_DOT = .914E-5
MEAN_MOTION_DDOT = 0

CCSDS_OMM_VERS = 2.0
CREATION_DATE  = 
ORIGINATOR     = 

OBJECT_NAME    = SL-8 R/B
OBJECT_ID      = 1979-089B
CENTER_NAME    = EARTH
REF_FRAME      = TEME
TIME_SYSTEM    = UTC
MEAN_ELEMENT_THEORY = SGP/SGP4

EPOCH          = 2025-12-12T03:25:25.843008
MEAN_MOTION    = 14.42283318
ECCENTRICITY   = .0014451
INCLINATION    = 74.0692
RA_OF_ASC_NODE = 253.0842
ARG_OF_PERICENTER = 87.7115
MEAN_ANOMALY   = 272.5696

EPHEMERIS_TYPE = 0
CLASSIFICATION_TYPE = U
NORAD_CAT_ID   = 11574
ELEMENT_SET_NO = 999
REV_AT_EPOCH   = 42348
BSTAR          = .15127E-3
MEAN_MOTION_DOT = .473E-5
MEAN_MOTION_DDOT = 0

CCSDS_OMM_VERS = 2.0
CREATION_DATE  = 
ORIGINATOR     = 

OBJECT_NAME    = SL-14 R/B
OBJECT_ID      = 1980-005B
CENTER_NAME    = EARTH
REF_FRAME      = TEME
TIME_SYSTEM    = UTC
MEAN_ELEMENT_THEORY = SGP/SGP4

EPOCH          = 2025-12-12T03:21:33.510816
MEAN_MOTION    = 14.90790828
ECCENTRICITY   = .001736
INCLINATION    = 82.5149
RA_OF_ASC_NODE = 30.2683
ARG_OF_PERICENTER = 95.2678
MEAN_ANOMALY   = 265.0523

EPHEMERIS_TYPE = 0
CLASSIFICATION_TYPE = U
NORAD_CAT_ID   = 11672
ELEMENT_SET_NO = 999
REV_AT_EPOCH   = 46344
BSTAR          = .84228E-4
MEAN_MOTION_DOT = .856E-5
MEAN_MOTION_DDOT = 0

CCSDS_OMM_VERS = 2.0
CREATION_DATE  = 
ORIGINATOR     = 

OBJECT_NAME    = SL-8 R/B
OBJECT_ID      = 1981-003B
CENTER_NAME    = EARTH
REF_FRAME      = TEME
TIME_SYSTEM    = UTC
MEAN_ELEMENT_THEORY = SGP/SGP4

EPOCH          = 2025-12-12T03:21:42.841152
MEAN_MOTION    = 15.07010240
ECCENTRICITY   = .0279709
INCLINATION    = 82.9302
RA_OF_ASC_NODE = 10.7553
ARG_OF_PERICENTER = 122.2849
MEAN_ANOMALY   = 240.5811

EPHEMERIS_TYPE = 0
CLASSIFICATION_TYPE = U
NORAD_CAT_ID   = 12139
ELEMENT_SET_NO = 999
REV_AT_EPOCH   = 30147
BSTAR          = .55038E-3
MEAN_MOTION_DOT = .20764E-3
MEAN_MOTION_DDOT = 0

CCSDS_OMM_VERS = 2.0
CREATION_DATE  = 
ORIGINATOR     = 

OBJECT_NAME    = SL-3 R/B
OBJECT_ID      = 1981-046B
CENTER_NAME    = EARTH
REF_FRAME      = TEME
TIME_SYSTEM    = UTC
MEAN_ELEMENT_THEORY = SGP/SGP4

EPOCH          = 2025-12-12T04:11:13.192800
MEAN_MOTION    = 15.39588251
ECCENTRICITY   = .0018883
INCLINATION    = 81.2332
RA_OF_ASC_NODE = 34.6141
ARG_OF_PERICENTER = 326.4434
MEAN_ANOMALY   = 33.5610

EPHEMERIS_TYPE = 0
CLASSIFICATION_TYPE = U
NORAD_CAT_ID   = 12465
ELEMENT_SET_NO = 999
REV_AT_EPOCH   = 42495
BSTAR          = .39258E-3
MEAN_MOTION_DOT = .15586E-3
MEAN_MOTION_DDOT = 0

CCSDS_OMM_VERS = 2.0
CREATION_DATE  = 
ORIGINATOR     = 

OBJECT_NAME    = SL-3 R/B
OBJECT_ID      = 1981-103B
CENTER_NAME    = EARTH
REF_FRAME      = TEME
TIME_SYSTEM    = UTC
MEAN_ELEMENT_THEORY = SGP/SGP4

EPOCH          = 2025-12-12T03:12:12.824064
MEAN_MOTION    = 15.20220690
ECCENTRICITY   = .0011613
INCLINATION    = 81.1592
RA_OF_ASC_NODE = 316.0638
ARG_OF_PERICENTER = 214.8894
MEAN_ANOMALY   = 145.1577

EPHEMERIS_TYPE = 0
CLASSIFICATION_TYPE = U
NORAD_CAT_ID   = 12904
ELEMENT_SET_NO = 999
REV_AT_EPOCH   = 95992
BSTAR          = .45568E-3
MEAN_MOTION_DOT = .9921E-4
MEAN_MOTION_DDOT = 0

CCSDS_OMM_VERS = 2.0
CREATION_DATE  = 
ORIGINATOR     = 

OBJECT_NAME    = SL-3 R/B
OBJECT_ID      = 1982-013B
CENTER_NAME    = EARTH
REF_FRAME      = TEME
TIME_SYSTEM    = UTC
MEAN_ELEMENT_THEORY = SGP/SGP4

EPOCH          = 2025-12-12T02:48:42.447744
MEAN_MOTION    = 15.21076129
ECCENTRICITY   = .0024096
INCLINATION    = 81.1748
RA_OF_ASC_NODE = 263.3381
ARG_OF_PERICENTER = 112.8781
MEAN_ANOMALY   = 247.4998

EPHEMERIS_TYPE = 0
CLASSIFICATION_TYPE = U
NORAD_CAT_ID   = 13068
ELEMENT_SET_NO = 999
REV_AT_EPOCH   = 39103
BSTAR          = .34835E-3
MEAN_MOTION_DOT = .7828E-4
MEAN_MOTION_DDOT = 0

CCSDS_OMM_VERS = 2.0
CREATION_DATE  = 
ORIGINATOR     = 

OBJECT_NAME    = SL-3 R/B
OBJECT_ID      = 1982-039B
CENTER_NAME    = EARTH
REF_FRAME      = TEME
TIME_SYSTEM    = UTC
MEAN_ELEMENT_THEORY = SGP/SGP4

EPOCH          = 2025-12-12T04:12:25.509600
MEAN_MOTION    = 15.09520757
ECCENTRICITY   = .0029701
INCLINATION    = 81.1722
RA_OF_ASC_NODE = 316.7467
ARG_OF_PERICENTER = 254.2574
MEAN_ANOMALY   = 105.5375

EPHEMERIS_TYPE = 0
CLASSIFICATION_TYPE = U
NORAD_CAT_ID   = 13154
ELEMENT_SET_NO = 999
REV_AT_EPOCH   = 36843
BSTAR          = .30466E-3
MEAN_MOTION_DOT = .4957E-4
MEAN_MOTION_DDOT = 0

