ATLAS CENTAUR R/B       
1 06155U 72065B   25345.71360988  .00002355  00000+0  32578-3 0  9990
2 06155  35.0010 101.2077 0034049 349.0024  10.9930 14.77404821828242
SL-8 R/B                
1 08459U 75112B   25345.99582147  .00000449  00000+0  15649-3 0  9990
2 08459  74.0592 180.2267 0016596 291.6176  68.3210 14.38144450619268
SL-3 R/B                
1 10114U 77057B   25346.10751744  .00017244  00000+0  39372-3 0  9996
2 10114  97.5686 149.4107 0006495 235.4828 124.5807 15.42922184654811
SEASAT 1                
1 10967U 78064A   25345.78298899  .00000746  00000+0  24719-3 0  9999
2 10967 108.0115 301.0267 0001653 250.1733 109.9234 14.46060370493809
SL-14 R/B               
1 11267U 79011B   25346.05020235  .00000914  00000+0  88036-4 0  9994
2 11267  82.5235 179.6983 0015971 355.8000   4.3083 14.91768261515713
SL-8 R/B                
1 11574U 79089B   25346.14266022  .00000473  00000+0  15127-3 0  9996
2 11574  74.0692 253.0842 0014451  87.7115 272.5696 14.42283318423480
SL-14 R/B               
1 11672U 80005B   25346.13997119  .00000856  00000+0  84228-4 0  9996
2 11672  82.5149  30.2683 0017360  95.2678 265.0523 14.90790828463446
SL-8 R/B                
1 12139U 81003B   25346.14007918  .00020764  00000+0  55038-3 0  9990
2 12139  82.9302  10.7553 0279709 122.2849 240.5811 15.07010240301471
SL-3 R/B                
1 12465U 81046B   25346.17445825  .00015586  00000+0  39258-3 0  9997
2 12465  81.2332  34.6141 0018883 326.4434  33.5610 15.39588251424951
SL-3 R/B                
1 12904U 81103B   25346.13348176  .00009921  00000+0  45568-3 0  9993
2 12904  81.1592 316.0638 0011613 214.8894 145.1577 15.20220690959920
SL-3 R/B                
1 13068U 82013B   25346.11715796  .00007828  00000+0  34835-3 0  9999
2 13068  81.1748 263.3381 0024096 112.8781 247.4998 15.21076129391037
SL-3 R/B                
1 13154U 82039B   25346.17529525  .00004957  00000+0  30466-3 0  9998
2 13154  81.1722 316.7467 0029701 254.2574 105.5375 15.09520757368430
